{"type": "FeatureCollection", "features": [ {"type": "Feature", "properties": {"norad_id": 40534, "name": "GPS BIIF-9  (PRN 26)", "group": "gps-ops", "lat": -53.0602741002886, "lon": 127.11906312594395, "alt_km": 20351.132727776167, "timestamp": "2025-12-18T10:51:26.064752+00:00", "meta": {"OBJECT_NAME": "GPS BIIF-9  (PRN 26)", "OBJECT_ID": "2015-013A", "EPOCH": "2025-12-17T13:48:02.835648", "MEAN_MOTION": 2.00562371, "ECCENTRICITY": 0.01072439, "INCLINATION": 53.197, "RA_OF_ASC_NODE": 211.6899, "ARG_OF_PERICENTER": 38.596, "MEAN_ANOMALY": 322.2597, "EPHEMERIS_TYPE": 0, "CLASSIFICATION_TYPE": "U", "NORAD_CAT_ID": 40534, "ELEMENT_SET_NO": 999, "REV_AT_EPOCH": 7818, "BSTAR": 0, "MEAN_MOTION_DOT": 8.5e-07, "MEAN_MOTION_DDOT": 0}, "tle": {"line1": "1 40534U 15013A   25351.57503282  .00000085  00000+0  00000+0 0  9995", "line2": "2 40534  53.1970 211.6899 0107243  38.5960 322.2597  2.00562371 78187"}}, "geometry": {"type": "Point", "coordinates": [127.11906312594395, -53.0602741002886]}}, {"type": "Feature", "properties": {"norad_id": 40730, "name": "GPS BIIF-10 (PRN 08)", "group": "gps-ops", "lat": 17.168078728126563, "lon": 81.62541699925433, "alt_km": 20374.92439226324, "timestamp": "2025-12-18T10:51:26.064764+00:00", "meta": {"OBJECT_NAME": "GPS BIIF-10 (PRN 08)", "OBJECT_ID": "2015-033A", "EPOCH": "2025-12-17T17:40:14.806272", "MEAN_MOTION": 2.00565457, "ECCENTRICITY": 0.01112676, "INCLINATION": 54.1263, "RA_OF_ASC_NODE": 274.5673, "ARG_OF_PERICENTER": 26.9306, "MEAN_ANOMALY": 333.6659, "EPHEMERIS_TYPE": 0, "CLASSIFICATION_TYPE": "U", "NORAD_CAT_ID": 40730, "ELEMENT_SET_NO": 999, "REV_AT_EPOCH": 7635, "BSTAR": 0, "MEAN_MOTION_DOT": -4.1e-07, "MEAN_MOTION_DDOT": 0}, "tle": {"line1": "1 40730U 15033A   25351.73628248 -.00000041  00000+0  00000+0 0  9996", "line2": "2 40730  54.1263 274.5673 0111267  26.9306 333.6659  2.00565457 76355"}}, "geometry": {"type": "Point", "coordinates": [81.62541699925433, 17.168078728126563]}}, {"type": "Feature", "properties": {"norad_id": 41019, "name": "GPS BIIF-11 (PRN 10)", "group": "gps-ops", "lat": 50.86273291308279, "lon": 164.39186820632253, "alt_km": 20312.089937488792, "timestamp": "2025-12-18T10:51:26.064776+00:00", "meta": {"OBJECT_NAME": "GPS BIIF-11 (PRN 10)", "OBJECT_ID": "2015-062A", "EPOCH": "2025-12-17T07:07:49.922112", "MEAN_MOTION": 2.00567224, "ECCENTRICITY": 0.01109439, "INCLINATION": 56.8355, "RA_OF_ASC_NODE": 37.826, "ARG_OF_PERICENTER": 230.0627, "MEAN_ANOMALY": 129.0159, "EPHEMERIS_TYPE": 0, "CLASSIFICATION_TYPE": "U", "NORAD_CAT_ID": 41019, "ELEMENT_SET_NO": 999, "REV_AT_EPOCH": 7418, "BSTAR": 0, "MEAN_MOTION_DOT": -7.6e-07, "MEAN_MOTION_DDOT": 0}, "tle": {"line1": "1 41019U 15062A   25351.29710558 -.00000076  00000+0  00000+0 0  9994", "line2": "2 41019  56.8355  37.8260 0110943 230.0627 129.0159  2.00567224 74188"}}, "geometry": {"type": "Point", "coordinates": [164.39186820632253, 50.86273291308279]}}, {"type": "Feature", "properties": {"norad_id": 41328, "name": "GPS BIIF-12 (PRN 32)", "group": "gps-ops", "lat": 41.61130759253577, "lon": 134.3675062661293, "alt_km": 20418.917931754626, "timestamp": "2025-12-18T10:51:26.064787+00:00", "meta": {"OBJECT_NAME": "GPS BIIF-12 (PRN 32)", "OBJECT_ID": "2016-007A", "EPOCH": "2025-12-17T09:06:47.085696", "MEAN_MOTION": 2.00560552, "ECCENTRICITY": 0.0092397, "INCLINATION": 55.4087, "RA_OF_ASC_NODE": 96.6729, "ARG_OF_PERICENTER": 243.6823, "MEAN_ANOMALY": 115.3496, "EPHEMERIS_TYPE": 0, "CLASSIFICATION_TYPE": "U", "NORAD_CAT_ID": 41328, "ELEMENT_SET_NO": 999, "REV_AT_EPOCH": 7219, "BSTAR": 0, "MEAN_MOTION_DOT": -3.9e-07, "MEAN_MOTION_DDOT": 0}, "tle": {"line1": "1 41328U 16007A   25351.37971164 -.00000039  00000+0  00000+0 0  9997", "line2": "2 41328  55.4087  96.6729 0092397 243.6823 115.3496  2.00560552 72199"}}, "geometry": {"type": "Point", "coordinates": [134.3675062661293, 41.61130759253577]}}, {"type": "Feature", "properties": {"norad_id": 43873, "name": "GPS BIII-1  (PRN 04)", "group": "gps-ops", "lat": -40.2428053623977, "lon": 63.880069403792184, "alt_km": 20227.01545295921, "timestamp": "2025-12-18T10:51:26.064799+00:00", "meta": {"OBJECT_NAME": "GPS BIII-1  (PRN 04)", "OBJECT_ID": "2018-109A", "EPOCH": "2025-12-15T18:29:34.483200", "MEAN_MOTION": 2.00553802, "ECCENTRICITY": 0.00374359, "INCLINATION": 55.5688, "RA_OF_ASC_NODE": 99.4273, "ARG_OF_PERICENTER": 195.145, "MEAN_ANOMALY": 336.5518, "EPHEMERIS_TYPE": 0, "CLASSIFICATION_TYPE": "U", "NORAD_CAT_ID": 43873, "ELEMENT_SET_NO": 999, "REV_AT_EPOCH": 5139, "BSTAR": 0, "MEAN_MOTION_DOT": -3.2e-07, "MEAN_MOTION_DDOT": 0}, "tle": {"line1": "1 43873U 18109A   25349.77053800 -.00000032  00000+0  00000+0 0  9991", "line2": "2 43873  55.5688  99.4273 0037435 195.1450 336.5518  2.00553802 51399"}}, "geometry": {"type": "Point", "coordinates": [63.880069403792184, -40.2428053623977]}}, {"type": "Feature", "properties": {"norad_id": 44506, "name": "GPS BIII-2  (PRN 18)", "group": "gps-ops", "lat": -20.72636432758529, "lon": 173.27226704803502, "alt_km": 20032.915079591574, "timestamp": "2025-12-18T10:51:26.064814+00:00", "meta": {"OBJECT_NAME": "GPS BIII-2  (PRN 18)", "OBJECT_ID": "2019-056A", "EPOCH": "2025-12-17T03:59:08.759040", "MEAN_MOTION": 2.00566605, "ECCENTRICITY": 0.00577134, "INCLINATION": 55.7199, "RA_OF_ASC_NODE": 338.3768, "ARG_OF_PERICENTER": 198.5058, "MEAN_ANOMALY": 157.947, "EPHEMERIS_TYPE": 0, "CLASSIFICATION_TYPE": "U", "NORAD_CAT_ID": 44506, "ELEMENT_SET_NO": 999, "REV_AT_EPOCH": 4641, "BSTAR": 0, "MEAN_MOTION_DOT": -8.7e-07, "MEAN_MOTION_DDOT": 0}, "tle": {"line1": "1 44506U 19056A   25351.16607360 -.00000087  00000+0  00000+0 0  9999", "line2": "2 44506  55.7199 338.3768 0057713 198.5058 157.9470  2.00566605 46412"}}, "geometry": {"type": "Point", "coordinates": [173.27226704803502, -20.72636432758529]}}, {"type": "Feature", "properties": {"norad_id": 45854, "name": "GPS BIII-3  (PRN 23)", "group": "gps-ops", "lat": 25.74059812608151, "lon": -162.58746997043392, "alt_km": 20086.49986043133, "timestamp": "2025-12-18T10:51:26.064836+00:00", "meta": {"OBJECT_NAME": "GPS BIII-3  (PRN 23)", "OBJECT_ID": "2020-041A", "EPOCH": "2025-12-17T06:02:11.568192", "MEAN_MOTION": 2.00562016, "ECCENTRICITY": 0.00605926, "INCLINATION": 56.5499, "RA_OF_ASC_NODE": 36.0099, "ARG_OF_PERICENTER": 203.5861, "MEAN_ANOMALY": 158.5614, "EPHEMERIS_TYPE": 0, "CLASSIFICATION_TYPE": "U", "NORAD_CAT_ID": 45854, "ELEMENT_SET_NO": 999, "REV_AT_EPOCH": 4039, "BSTAR": 0, "MEAN_MOTION_DOT": -7.7e-07, "MEAN_MOTION_DDOT": 0}, "tle": {"line1": "1 45854U 20041A   25351.25152278 -.00000077  00000+0  00000+0 0  9994", "line2": "2 45854  56.5499  36.0099 0060592 203.5861 158.5614  2.00562016 40398"}}, "geometry": {"type": "Point", "coordinates": [-162.58746997043392, 25.74059812608151]}}, {"type": "Feature", "properties": {"norad_id": 46826, "name": "GPS BIII-4  (PRN 14)", "group": "gps-ops", "lat": 44.73391460098583, "lon": -7.900118130203837, "alt_km": 20157.299835700298, "timestamp": "2025-12-18T10:51:26.064859+00:00", "meta": {"OBJECT_NAME": "GPS BIII-4  (PRN 14)", "OBJECT_ID": "2020-078A", "EPOCH": "2025-12-16T01:06:13.902336", "MEAN_MOTION": 2.00566891, "ECCENTRICITY": 0.00647554, "INCLINATION": 54.0145, "RA_OF_ASC_NODE": 218.2068, "ARG_OF_PERICENTER": 203.3828, "MEAN_ANOMALY": 339.3936, "EPHEMERIS_TYPE": 0, "CLASSIFICATION_TYPE": "U", "NORAD_CAT_ID": 46826, "ELEMENT_SET_NO": 999, "REV_AT_EPOCH": 3783, "BSTAR": 0, "MEAN_MOTION_DOT": 6.7e-07, "MEAN_MOTION_DDOT": 0}, "tle": {"line1": "1 46826U 20078A   25350.04599424  .00000067  00000+0  00000+0 0  9996", "line2": "2 46826  54.0145 218.2068 0064755 203.3828 339.3936  2.00566891 37831"}}, "geometry": {"type": "Point", "coordinates": [-7.900118130203837, 44.73391460098583]}}, {"type": "Feature", "properties": {"norad_id": 48859, "name": "GPS BIII-5  (PRN 11)", "group": "gps-ops", "lat": -41.87634710806634, "lon": -58.762202492532495, "alt_km": 20167.500632367206, "timestamp": "2025-12-18T10:51:26.064879+00:00", "meta": {"OBJECT_NAME": "GPS BIII-5  (PRN 11)", "OBJECT_ID": "2021-054A", "EPOCH": "2025-12-08T04:14:32.423424", "MEAN_MOTION": 2.00553627, "ECCENTRICITY": 0.0024678, "INCLINATION": 55.2581, "RA_OF_ASC_NODE": 340.1367, "ARG_OF_PERICENTER": 233.3994, "MEAN_ANOMALY": 212.8593, "EPHEMERIS_TYPE": 0, "CLASSIFICATION_TYPE": "U", "NORAD_CAT_ID": 48859, "ELEMENT_SET_NO": 999, "REV_AT_EPOCH": 3292, "BSTAR": 0, "MEAN_MOTION_DOT": -8.6e-07, "MEAN_MOTION_DDOT": 0}, "tle": {"line1": "1 48859U 21054A   25342.17676416 -.00000086  00000+0  00000+0 0  9993", "line2": "2 48859  55.2581 340.1367 0024678 233.3994 212.8593  2.00553627 32922"}}, "geometry": {"type": "Point", "coordinates": [-58.762202492532495, -41.87634710806634]}}, {"type": "Feature", "properties": {"norad_id": 55268, "name": "GPS BIII-6  (PRN 28)", "group": "gps-ops", "lat": -9.9365778674162, "lon": 148.58499499978853, "alt_km": 20174.83172031438, "timestamp": "2025-12-18T10:51:26.064899+00:00", "meta": {"OBJECT_NAME": "GPS BIII-6  (PRN 28)", "OBJECT_ID": "2023-009A", "EPOCH": "2025-12-17T05:26:38.724576", "MEAN_MOTION": 2.00555443, "ECCENTRICITY": 0.00036765, "INCLINATION": 55.1057, "RA_OF_ASC_NODE": 155.6691, "ARG_OF_PERICENTER": 356.3023, "MEAN_ANOMALY": 186.6763, "EPHEMERIS_TYPE": 0, "CLASSIFICATION_TYPE": "U", "NORAD_CAT_ID": 55268, "ELEMENT_SET_NO": 999, "REV_AT_EPOCH": 2159, "BSTAR": 0, "MEAN_MOTION_DOT": 7.9e-07, "MEAN_MOTION_DDOT": 0}, "tle": {"line1": "1 55268U 23009A   25351.22683709  .00000079  00000+0  00000+0 0  9997", "line2": "2 55268  55.1057 155.6691 0003676 356.3023 186.6763  2.00555443 21590"}}, "geometry": {"type": "Point", "coordinates": [148.58499499978853, -9.9365778674162]}}]}